ONEWEB-0533             
1 55141U 23004B   24097.59550219  .00000467  00000+0  12626-2 0  9998
2 55141  87.8988 150.2020 0002002  93.8175 266.3183 13.12444392 62913
ONEWEB-0541             
1 55142U 23004C   24097.45719116  .00000563  00000+0  15536-2 0  9997
2 55142  87.9033 180.4974 0002122 102.2913 257.8453 13.11417344 60860
ONEWEB-0543             
1 55143U 23004D   24097.37725543  .00000107  00000+0  23832-3 0  9993
2 55143  87.9147 135.1622 0001677  92.2841 267.8484 13.18685348 64021
ONEWEB-0544             
1 55144U 23004E   24097.37094500  .00000122  00000+0  27632-3 0  9995
2 55144  87.9148 135.1475 0002086 100.1487 259.9881 13.18685859 64029
ONEWEB-0560             
1 55145U 23004F   24097.36462636  .00000103  00000+0  22899-3 0  9993
2 55145  87.9155 135.0954 0001721 104.6273 255.5050 13.18686412 64033
ONEWEB-0565             
1 55146U 23004G   24097.51005787  .00000035  00000+0  56730-4 0  9997
2 55146  87.9149 135.1480 0002297 114.2360 245.9013 13.18686589 64043
ONEWEB-0567             
1 55147U 23004H   24097.35196742  .00000088  00000+0  18993-3 0  9998
2 55147  87.9152 135.1325 0001918 112.9792 247.1542 13.18684650 64025
ONEWEB-0569             
1 55148U 23004J   24097.46652837 -.00000257  00000+0 -73790-3 0  9999
2 55148  87.8901 119.7974 0001686 128.9180 231.2100 13.13470863 64933
